{
    "links": {
        "self": "http://www.neowsapp.com/rest/v1/neo/3445540?api_key=iIulBulltgU6a56xZRHN4H3l9WmuAYTsLGpBGhQ2"
    },
    "id": "3445540",
    "neo_reference_id": "3445540",
    "name": "(2009 BG81)",
    "designation": "2009 BG81",
    "nasa_jpl_url": "http://ssd.jpl.nasa.gov/sbdb.cgi?sstr=3445540",
    "absolute_magnitude_h": 27.9,
    "estimated_diameter": {
        "kilometers": {
            "estimated_diameter_min": 0.0069912523,
            "estimated_diameter_max": 0.0156329154
        },
        "meters": {
            "estimated_diameter_min": 6.9912523225,
            "estimated_diameter_max": 15.6329154409
        },
        "miles": {
            "estimated_diameter_min": 0.0043441614,
            "estimated_diameter_max": 0.0097138403
        },
        "feet": {
            "estimated_diameter_min": 22.9371802696,
            "estimated_diameter_max": 51.289094295
        }
    },
    "is_potentially_hazardous_asteroid": false,
    "close_approach_data": [
        {
            "close_approach_date": "2009-02-02",
            "close_approach_date_full": "2009-Feb-02 15:15",
            "epoch_date_close_approach": 1233587700000,
            "relative_velocity": {
                "kilometers_per_second": "7.6073025884",
                "kilometers_per_hour": "27386.2893180975",
                "miles_per_hour": "17016.7751599034"
            },
            "miss_distance": {
                "astronomical": "0.0113977664",
                "lunar": "4.4337311296",
                "kilometers": "1705081.576197568",
                "miles": "1059488.5623117184"
            },
            "orbiting_body": "Earth"
        }
    ],
    "orbital_data": {
        "orbit_id": "7",
        "orbit_determination_date": "2017-04-06 09:01:28",
        "first_observation_date": "2009-01-31",
        "last_observation_date": "2009-02-02",
        "data_arc_in_days": 2,
        "observations_used": 22,
        "orbit_uncertainty": "7",
        "minimum_orbit_intersection": ".00809231",
        "jupiter_tisserand_invariant": "3.943",
        "epoch_osculation": "2459000.5",
        "eccentricity": ".4598815732727587",
        "semi_major_axis": "1.793185086403457",
        "inclination": "3.078325945262255",
        "ascending_node_longitude": "128.5725652325444",
        "orbital_period": "877.0737319980683",
        "perihelion_distance": ".9685323076989873",
        "perihelion_argument": "29.04510720407634",
        "aphelion_distance": "2.617837865107927",
        "perihelion_time": "2459271.175149729763",
        "mean_anomaly": "248.8998149782359",
        "mean_motion": ".4104557996280213",
        "equinox": "J2000",
        "orbit_class": {
            "orbit_class_type": "APO",
            "orbit_class_description": "Near-Earth asteroid orbits which cross the Earth’s orbit similar to that of 1862 Apollo",
            "orbit_class_range": "a (semi-major axis) > 1.0 AU; q (perihelion) < 1.017 AU"
        }
    },
    "is_sentry_object": false
}